COSMOS 2426 (717)       
1 29671U 06062B   20156.44632829 -.00000024  00000-0  10000-3 0  9992
2 29671  64.9727 268.3514 0020098 172.9294 184.0783  2.12962457104615
COSMOS 2433 (720)       
1 32275U 07052A   20156.23106449 -.00000059  00000-0  10000-3 0  9995
2 32275  65.9767  29.3618 0001585 284.5643  40.1196  2.13104342 98122
COSMOS 2432 (719)       
1 32276U 07052B   20156.29948872 -.00000059  00000-0  10000-3 0  9996
2 32276  65.9888  29.4477 0010907 338.0885 349.3228  2.13103806 98126
COSMOS 2434 (721)       
1 32393U 07065A   20156.44617475 -.00000022  00000-0  00000-0 0  9995
2 32393  64.5798 266.8692 0003687 106.6723 270.6166  2.13103043 96841
COSMOS 2436 (723)       
1 32395U 07065C   20156.30365381 -.00000023  00000-0  10000-3 0  9993
2 32395  64.5893 266.9196 0013737   4.0403  40.1655  2.13103109 96770
COSMOS 2456 (730)       
1 36111U 09070A   20156.32376602  .00000066  00000-0  00000-0 0  9993
2 36111  64.2277 146.5414 0006421 303.8032 153.0138  2.13102952 81509
COSMOS 2457 (733)       
1 36112U 09070B   20156.42826016  .00000064  00000-0  00000-0 0  9992
2 36112  64.2112 146.4327 0004740 197.3405 102.9710  2.13101544 81507
COSMOS 2459 (731)       
1 36400U 10007A   20156.43856007 -.00000059  00000-0  10000-3 0  9997
2 36400  65.8790  28.3268 0026508 352.7475 346.5026  2.13105419 79854
COSMOS 2461 (735)       
1 36401U 10007B   20156.39029175 -.00000059  00000-0  10000-3 0  9991
2 36401  65.8695  28.2993 0008963  62.1182 148.3289  2.13101965 79856
COSMOS 2460 (732)       
1 36402U 10007C   20156.29306287 -.00000059  00000-0  10000-3 0  9993
2 36402  65.8621  28.2615 0001856  55.5824 119.4118  2.13101265 79853
COSMOS 2464 (736)       
1 37139U 10041C   20156.42765887 -.00000022  00000-0  00000+0 0  9994
2 37139  64.1779 266.3117 0026047  12.5133 214.2799  2.13100777 75924
COSMOS 2474 (742)       
1 37829U 11055A   20156.29621694  .00000069  00000-0  00000-0 0  9999
2 37829  64.5464 147.5630 0010598 250.0711  40.4139  2.13101829 67499
COSMOS 2476 (744)       
1 37867U 11064A   20156.46256184  .00000066  00000-0  00000-0 0  9995
2 37867  64.5275 147.6004 0021666 243.2431 221.1186  2.13101976 66850
COSMOS 2477 (745)       
1 37868U 11064B   20156.26850911  .00000069  00000-0  00000+0 0  9994
2 37868  64.5362 147.6659 0019223 244.8036 249.1926  2.13101868 66805
COSMOS 2475 (743)       
1 37869U 11064C   20156.30944208  .00000069  00000-0  00000-0 0  9994
2 37869  64.5425 147.6642 0023698 263.4793 219.2777  2.13102078 66813
COSMOS 2485 (747)       
1 39155U 13019A   20156.50655520  .00000066  00000-0  00000-0 0  9991
2 39155  64.6949 147.8654 0021965 238.8718 303.8096  2.13101995 55323
COSMOS 2492 (754)       
1 39620U 14012A   20156.47546869 -.00000059  00000-0  10000-3 0  9990
2 39620  65.7523  28.0401 0013804 332.2065 221.7082  2.13103392 48279
COSMOS 2500 (755)       
1 40001U 14032A   20155.46507764 -.00000058  00000-0  00000+0 0  9990
2 40001  65.6913  27.9904 0004744 200.7082 158.6561  2.13102749 46467
COSMOS 2501 (702K)      
1 40315U 14075A   20156.56238259 -.00000022  00000-0  00000-0 0  9999
2 40315  63.8966 267.2572 0016426 205.6936  70.5928  2.13098752 42895
COSMOS 2514 (751)       
1 41330U 16008A   20156.44017243 -.00000060  00000-0  00000-0 0  9992
2 41330  65.4937  27.8331 0008140 213.1544 356.6674  2.13103169 33654
COSMOS 2516 (753)       
1 41554U 16032A   20156.41082638 -.00000023  00000-0  00000-0 0  9993
2 41554  64.1185 267.3282 0012520 214.0083 224.0904  2.13101760 31268
COSMOS 2522 (752)       
1 42939U 17055A   20156.60604149 -.00000022  00000-0  00000-0 0  9994
2 42939  64.3516 267.4978 0006916 240.2659 214.1680  2.13101941 21026
COSMOS 2527 (756)       
1 43508U 18053A   20156.36224993  .00000068  00000-0  00000-0 0  9993
2 43508  64.8595 147.7149 0009291 244.3805  54.8109  2.13102662 15308
COSMOS 2529 (757)       
1 43687U 18086A   20156.36194985 -.00000024  00000-0  00000-0 0  9997
2 43687  64.5651 267.6231 0009007 269.6577 313.1386  2.13102123 12320
COSMOS 2534 (758)       
1 44299U 19030A   20156.41495119 -.00000023  00000-0  00000-0 0  9995
2 44299  64.6346 267.4361 0011974 290.0391 108.4714  2.13102066  7973
